STARLINK-4131           
1 53246U 22086E   26154.27983476 -.00000365  00000+0 -48546-5 0  9999
2 53246  53.1814 179.8660 0001082  92.5200 267.5915 15.08848855213058
STARLINK-4061           
1 53247U 22086F   26154.30056024  .00000608  00000+0  56297-4 0  9993
2 53247  53.1832 174.9554 0001299  73.4308 286.6826 15.08837408214230
STARLINK-4135           
1 53248U 22086G   26154.28951312  .00000340  00000+0  39464-4 0  9995
2 53248  53.1810 174.9263 0001267  78.7840 281.3294 15.08832122214237
STARLINK-4128           
1 53249U 22086H   26154.29275863  .00000123  00000+0  25845-4 0  9994
2 53249  53.1829 169.8162 0001161  83.0520 277.0603 15.08834843214009
STARLINK-4059           
1 53250U 22086J   26154.29544790  .00007171  00000+0  46771-3 0  9994
2 53250  53.1919 169.8049 0002104  58.8389 301.2809 15.08878186213999
STARLINK-4129           
1 53251U 22086K   26154.28444279 -.00000177  00000+0  69717-5 0  9992
2 53251  53.1824 169.8460 0001208  64.7537 295.3580 15.08833867213982
STARLINK-4132           
1 53252U 22086L   26154.28812876  .00001408  00000+0  10652-3 0  9994
2 53252  53.1829 169.7839 0001188  80.1662 279.9463 15.08837555214005
STARLINK-4133           
1 53253U 22086M   26154.28075720  .00000464  00000+0  47269-4 0  9990
2 53253  53.1828 169.8697 0001376 111.6586 248.4553 15.08835272213983
STARLINK-4134           
1 53254U 22086N   26154.28907978  .00000024  00000+0  19588-4 0  9995
2 53254  53.1839 169.8390 0001284  69.0771 291.0358 15.08833035214002
STARLINK-4142           
1 53255U 22086P   26154.27339775  .00000560  00000+0  53263-4 0  9992
2 53255  53.1811 169.8957 0001201  70.9689 289.1433 15.08835607213985
STARLINK-4147           
1 53256U 22086Q   26154.27707881 -.00000073  00000+0  13490-4 0  9998
2 53256  53.1828 169.8803 0001462 104.8947 255.2207 15.08831718213989
STARLINK-4144           
1 53257U 22086R   26154.26235534 -.00000877  00000+0 -36995-4 0  9997
2 53257  53.1814 169.9559 0000858  91.2479 268.8611 15.08842591213981
STARLINK-4127           
1 53258U 22086S   26154.33595962  .00000019  00000+0  19256-4 0  9997
2 53258  53.1815 169.6150 0001142  67.6259 292.4854 15.08832196213990
STARLINK-4140           
1 53259U 22086T   26154.29175626  .00000163  00000+0  28318-4 0  9993
2 53259  53.1832 169.4573 0001256  85.7249 274.3886 15.08836340213992
STARLINK-4062           
1 53261U 22086V   26154.31755558  .00000289  00000+0  36263-4 0  9994
2 53261  53.1813 169.7004 0001266  58.2087 301.9028 15.08836588213991
STARLINK-4085           
1 53262U 22086W   26154.32491630  .00000167  00000+0  28610-4 0  9996
2 53262  53.1816 169.6649 0001408  53.1951 306.9170 15.08836248213997
STARLINK-4130           
1 53263U 22086X   26154.31387705  .00000461  00000+0  47030-4 0  9997
2 53263  53.1816 169.7220 0001097  72.9041 287.2071 15.08845472213997
STARLINK-3950           
1 53264U 22086Y   26154.32123310  .00000700  00000+0  62074-4 0  9990
2 53264  53.1814 169.6817 0001521  66.2100 293.9051 15.08839314213991
STARLINK-4097           
1 53265U 22086Z   26154.30651623  .00000175  00000+0  29065-4 0  9991
2 53265  53.1836 169.7544 0001096  95.6495 264.4621 15.08838500213996
STARLINK-4058           
1 53266U 22086AA  26154.31019321  .00001085  00000+0  86239-4 0  9993
2 53266  53.1833 169.7335 0001233  83.5819 276.5313 15.08841143213990
STARLINK-4060           
1 53267U 22086AB  26154.29916015  .00000580  00000+0  54517-4 0  9990
2 53267  53.1846 169.7845 0000982  90.0817 270.0287 15.08835817213992
STARLINK-4109           
1 53268U 22086AC  26154.56779684  .00000160  00000+0  28114-4 0  9998
2 53268  53.1817 168.5785 0001105  66.8801 293.2307 15.08837350214033
STARLINK-4122           
1 53272U 22086AG  26154.29639944 -.00000214  00000+0  46509-5 0  9997
2 53272  53.1833 159.7965 0001091  70.2758 289.8351 15.08830147214129
STARLINK-4051           
1 53273U 22086AH  26154.27799959  .00001092  00000+0  86697-4 0  9994
2 53273  53.1827 159.8738 0001614  32.5928 327.5163 15.08839016214117
STARLINK-4050           
1 53274U 22086AJ  26154.28903645  .00000121  00000+0  25690-4 0  9993
2 53274  53.1822 159.8280 0001750  71.9191 288.1991 15.08836932214121
STARLINK-4179           
1 53275U 22086AK  26154.27431846  .00000342  00000+0  39554-4 0  9991
2 53275  53.1852 159.8969 0001372  95.5189 264.5960 15.08837742214111
STARLINK-4174           
1 53276U 22086AL  26154.28167662  .00000191  00000+0  30124-4 0  9991
2 53276  53.1845 159.8620 0001269  68.5580 291.5547 15.08836575214112
STARLINK-4178           
1 53277U 22086AM  26154.33320011  .00000479  00000+0  48159-4 0  9993
2 53277  53.1812 159.6522 0001299 112.0638 248.0492 15.08837285214124
STARLINK-4180           
1 53278U 22086AN  26154.27063476 -.00006029  00000+0 -36086-3 0  9990
2 53278  53.1825 159.9146 0002159  32.4592 327.6532 15.08852913214117
STARLINK-4169           
1 53280U 22086AQ  26155.05306258  .00002265  00000+0  16042-3 0  9994
2 53280  53.1816 111.0720 0001184  88.2539 271.8589 15.08823926214871
