OBJECT_NAME,OBJECT_ID,EPOCH,MEAN_MOTION,ECCENTRICITY,INCLINATION,RA_OF_ASC_NODE,ARG_OF_PERICENTER,MEAN_ANOMALY,EPHEMERIS_TYPE,CLASSIFICATION_TYPE,NORAD_CAT_ID,ELEMENT_SET_NO,REV_AT_EPOCH,BSTAR,MEAN_MOTION_DOT,MEAN_MOTION_DDOT
STARLINK-4131,2022-086E,2026-06-03T06:42:57.723264,15.08848855,.00010822,53.1814,179.8660,92.5200,267.5915,0,U,53246,999,21305,-.4854596E-5,-.365E-5,0
STARLINK-4061,2022-086F,2026-06-03T07:12:48.404736,15.08837408,.00012992,53.1832,174.9554,73.4308,286.6826,0,U,53247,999,21423,.56296604E-4,.608E-5,0
STARLINK-4135,2022-086G,2026-06-03T06:56:53.933568,15.08832122,.00012671,53.1810,174.9263,78.7840,281.3294,0,U,53248,999,21423,.39463752E-4,.34E-5,0
STARLINK-4128,2022-086H,2026-06-03T07:01:34.345632,15.08834843,.00011611,53.1829,169.8162,83.0520,277.0603,0,U,53249,999,21400,.25844735E-4,.123E-5,0
STARLINK-4059,2022-086J,2026-06-03T07:05:26.698560,15.08878186,.00021049,53.1919,169.8049,58.8389,301.2809,0,U,53250,999,21399,.46771043E-3,.7171E-4,0
STARLINK-4129,2022-086K,2026-06-03T06:49:35.857056,15.08833867,.0001208,53.1824,169.8460,64.7537,295.3580,0,U,53251,999,21398,.69717E-5,-.177E-5,0
STARLINK-4132,2022-086L,2026-06-03T06:54:54.324864,15.08837555,.00011884,53.1829,169.7839,80.1662,279.9463,0,U,53252,999,21400,.10652338E-3,.1408E-4,0
STARLINK-4133,2022-086M,2026-06-03T06:44:17.422080,15.08835272,.0001376,53.1828,169.8697,111.6586,248.4553,0,U,53253,999,21398,.47269021E-4,.464E-5,0
STARLINK-4134,2022-086N,2026-06-03T06:56:16.492992,15.08833035,.00012842,53.1839,169.8390,69.0771,291.0358,0,U,53254,999,21400,.19588388E-4,.24E-6,0
STARLINK-4142,2022-086P,2026-06-03T06:33:41.565600,15.08835607,.00012015,53.1811,169.8957,70.9689,289.1433,0,U,53255,999,21398,.53262653E-4,.56E-5,0
STARLINK-4147,2022-086Q,2026-06-03T06:38:59.609184,15.08831718,.00014624,53.1828,169.8803,104.8947,255.2207,0,U,53256,999,21398,.13490241E-4,-.73E-6,0
STARLINK-4144,2022-086R,2026-06-03T06:17:47.501376,15.08842591,.0000858,53.1814,169.9559,91.2479,268.8611,0,U,53257,999,21398,-.36994634E-4,-.877E-5,0
STARLINK-4127,2022-086S,2026-06-03T08:03:46.911168,15.08832196,.00011423,53.1815,169.6150,67.6259,292.4854,0,U,53258,999,21399,.19255782E-4,.19E-6,0
STARLINK-4140,2022-086T,2026-06-03T07:00:07.740864,15.08836340,.00012561,53.1832,169.4573,85.7249,274.3886,0,U,53259,999,21399,.28318375E-4,.163E-5,0
STARLINK-4062,2022-086V,2026-06-03T07:37:16.802112,15.08836588,.00012663,53.1813,169.7004,58.2087,301.9028,0,U,53261,999,21399,.36262646E-4,.289E-5,0
STARLINK-4085,2022-086W,2026-06-03T07:47:52.768320,15.08836248,.00014082,53.1816,169.6649,53.1951,306.9170,0,U,53262,999,21399,.2861001E-4,.167E-5,0
STARLINK-4130,2022-086X,2026-06-03T07:31:58.977120,15.08845472,.00010979,53.1816,169.7220,72.9041,287.2071,0,U,53263,999,21399,.47029864E-4,.461E-5,0
STARLINK-3950,2022-086Y,2026-06-03T07:42:34.539840,15.08839314,.00015218,53.1814,169.6817,66.2100,293.9051,0,U,53264,999,21399,.62074184E-4,.7E-5,0
STARLINK-4097,2022-086Z,2026-06-03T07:21:23.002272,15.08838500,.00010964,53.1836,169.7544,95.6495,264.4621,0,U,53265,999,21399,.29065137E-4,.175E-5,0
STARLINK-4058,2022-086AA,2026-06-03T07:26:40.693344,15.08841143,.00012339,53.1833,169.7335,83.5819,276.5313,0,U,53266,999,21399,.86238873E-4,.1085E-4,0
STARLINK-4060,2022-086AB,2026-06-03T07:10:47.436960,15.08835817,.00009821,53.1846,169.7845,90.0817,270.0287,0,U,53267,999,21399,.54516949E-4,.58E-5,0
STARLINK-4109,2022-086AC,2026-06-03T13:37:37.646976,15.08837350,.0001105,53.1817,168.5785,66.8801,293.2307,0,U,53268,999,21403,.28114E-4,.16E-5,0
STARLINK-4122,2022-086AG,2026-06-03T07:06:48.911616,15.08830147,.00010919,53.1833,159.7965,70.2758,289.8351,0,U,53272,999,21412,.4650883E-5,-.214E-5,0
STARLINK-4051,2022-086AH,2026-06-03T06:40:19.164576,15.08839016,.00016148,53.1827,159.8738,32.5928,327.5163,0,U,53273,999,21411,.86696695E-4,.1092E-4,0
STARLINK-4050,2022-086AJ,2026-06-03T06:56:12.749280,15.08836932,.00017504,53.1822,159.8280,71.9191,288.1991,0,U,53274,999,21412,.2569021E-4,.121E-5,0
STARLINK-4179,2022-086AK,2026-06-03T06:35:01.114944,15.08837742,.00013725,53.1852,159.8969,95.5189,264.5960,0,U,53275,999,21411,.39554177E-4,.342E-5,0
STARLINK-4174,2022-086AL,2026-06-03T06:45:36.859968,15.08836575,.00012695,53.1845,159.8620,68.5580,291.5547,0,U,53276,999,21411,.30123706E-4,.191E-5,0
STARLINK-4178,2022-086AM,2026-06-03T07:59:48.489504,15.08837285,.00012994,53.1812,159.6522,112.0638,248.0492,0,U,53277,999,21412,.48159267E-4,.479E-5,0
STARLINK-4180,2022-086AN,2026-06-03T06:29:42.843264,15.08852913,.00021596,53.1825,159.9146,32.4592,327.6532,0,U,53278,999,21411,-.36086479E-3,-.6029E-4,0
STARLINK-4169,2022-086AQ,2026-06-04T01:16:24.606912,15.08823926,.0001184,53.1816,111.0720,88.2539,271.8589,0,U,53280,999,21487,.16042E-3,.2265E-4,0
